[Satellite]
VERSION=1.1
NAME=VELOX-1
NICKNAME=VELOX-1
TLE1=1 40057U 14034E   19311.60448727  .00000327  00000-0  53173-4 0  9996
TLE2=2 40057  98.2521  77.9010 0011832 135.2838 224.9329 14.77741286288729
STATUS=0
